{"type": "FeatureCollection", "features": [ {"type": "Feature", "properties": {"norad_id": 60989, "name": "SENTINEL-2C", "group": "resource", "lat": -13.124730267913838, "lon": -108.14527968266964, "alt_km": 793.5091976570975, "timestamp": "2025-12-27T14:26:30.174548+00:00", "meta": {"OBJECT_NAME": "SENTINEL-2C", "OBJECT_ID": "2024-157A", "EPOCH": "2025-12-27T05:09:01.093536", "MEAN_MOTION": 14.30818365, "ECCENTRICITY": 0.00013664, "INCLINATION": 98.5665, "RA_OF_ASC_NODE": 73.4874, "ARG_OF_PERICENTER": 102.0401, "MEAN_ANOMALY": 258.0935, "EPHEMERIS_TYPE": 0, "CLASSIFICATION_TYPE": "U", "NORAD_CAT_ID": 60989, "ELEMENT_SET_NO": 999, "REV_AT_EPOCH": 6839, "BSTAR": 8.3483303e-05, "MEAN_MOTION_DOT": 1.75e-06, "MEAN_MOTION_DDOT": 0}, "tle": {"line1": "1 60989U 24157A   25361.21459599  .00000175  00000+0  83483-4 0  9994", "line2": "2 60989  98.5665  73.4874 0001366 102.0401 258.0935 14.30818365 68397"}}, "geometry": {"type": "Point", "coordinates": [-108.14527968266964, -13.124730267913838]}}, {"type": "Feature", "properties": {"norad_id": 61735, "name": "IONOSFERA-M 1", "group": "resource", "lat": 26.35052659894865, "lon": -133.03486612743967, "alt_km": 815.0206737689678, "timestamp": "2025-12-27T14:26:30.174558+00:00", "meta": {"OBJECT_NAME": "IONOSFERA-M 1", "OBJECT_ID": "2024-199A", "EPOCH": "2025-12-27T07:33:54.823104", "MEAN_MOTION": 14.22717287, "ECCENTRICITY": 2.372e-05, "INCLINATION": 98.7395, "RA_OF_ASC_NODE": 231.0508, "ARG_OF_PERICENTER": 0.37, "MEAN_ANOMALY": 359.7478, "EPHEMERIS_TYPE": 0, "CLASSIFICATION_TYPE": "U", "NORAD_CAT_ID": 61735, "ELEMENT_SET_NO": 999, "REV_AT_EPOCH": 10326, "BSTAR": 4.9162393e-05, "MEAN_MOTION_DOT": 6.6e-07, "MEAN_MOTION_DDOT": 0}, "tle": {"line1": "1 61735U 24199A   25361.31521786  .00000066  00000+0  49162-4 0  9994", "line2": "2 61735  98.7395 231.0508 0000237   0.3700 359.7478 14.22717287103262"}}, "geometry": {"type": "Point", "coordinates": [-133.03486612743967, 26.35052659894865]}}, {"type": "Feature", "properties": {"norad_id": 61736, "name": "IONOSFERA-M 2", "group": "resource", "lat": -29.310634343155698, "lon": 46.2930804080259, "alt_km": 822.6667109686186, "timestamp": "2025-12-27T14:26:30.174568+00:00", "meta": {"OBJECT_NAME": "IONOSFERA-M 2", "OBJECT_ID": "2024-199B", "EPOCH": "2025-12-27T06:42:30.159936", "MEAN_MOTION": 14.22719464, "ECCENTRICITY": 0.00018789, "INCLINATION": 98.7394, "RA_OF_ASC_NODE": 230.9277, "ARG_OF_PERICENTER": 91.8345, "MEAN_ANOMALY": 268.3048, "EPHEMERIS_TYPE": 0, "CLASSIFICATION_TYPE": "U", "NORAD_CAT_ID": 61736, "ELEMENT_SET_NO": 999, "REV_AT_EPOCH": 10638, "BSTAR": 5.1294584e-05, "MEAN_MOTION_DOT": 7.1e-07, "MEAN_MOTION_DDOT": 0}, "tle": {"line1": "1 61736U 24199B   25361.27951574  .00000071  00000+0  51295-4 0  9998", "line2": "2 61736  98.7394 230.9277 0001878  91.8345 268.3048 14.22719464106388"}}, "geometry": {"type": "Point", "coordinates": [46.2930804080259, -29.310634343155698]}}, {"type": "Feature", "properties": {"norad_id": 63772, "name": "BIOMASS", "group": "resource", "lat": -80.15609454538237, "lon": -118.76352026423795, "alt_km": 677.0058279862333, "timestamp": "2025-12-27T14:26:30.174579+00:00", "meta": {"OBJECT_NAME": "BIOMASS", "OBJECT_ID": "2025-090A", "EPOCH": "2025-12-27T00:05:53.851200", "MEAN_MOTION": 14.67535929, "ECCENTRICITY": 0.00010413, "INCLINATION": 98.0692, "RA_OF_ASC_NODE": 185.8039, "ARG_OF_PERICENTER": 86.5947, "MEAN_ANOMALY": 273.5377, "EPHEMERIS_TYPE": 0, "CLASSIFICATION_TYPE": "U", "NORAD_CAT_ID": 63772, "ELEMENT_SET_NO": 999, "REV_AT_EPOCH": 3543, "BSTAR": 0.0002500388, "MEAN_MOTION_DOT": 1.37e-05, "MEAN_MOTION_DDOT": 0}, "tle": {"line1": "1 63772U 25090A   25361.00409550  .00001370  00000+0  25004-3 0  9995", "line2": "2 63772  98.0692 185.8039 0001041  86.5947 273.5377 14.67535929 35430"}}, "geometry": {"type": "Point", "coordinates": [-118.76352026423795, -80.15609454538237]}}, {"type": "Feature", "properties": {"norad_id": 64694, "name": "GOSAT-GW (IBUKI GW)", "group": "resource", "lat": 52.647745053881195, "lon": 127.52433825790709, "alt_km": 663.2290199742793, "timestamp": "2025-12-27T14:26:30.174589+00:00", "meta": {"OBJECT_NAME": "GOSAT-GW (IBUKI GW)", "OBJECT_ID": "2025-141A", "EPOCH": "2025-12-27T07:19:18.626016", "MEAN_MOTION": 14.67557386, "ECCENTRICITY": 0.00014662, "INCLINATION": 98.0442, "RA_OF_ASC_NODE": 296.5549, "ARG_OF_PERICENTER": 82.1908, "MEAN_ANOMALY": 277.9463, "EPHEMERIS_TYPE": 0, "CLASSIFICATION_TYPE": "U", "NORAD_CAT_ID": 64694, "ELEMENT_SET_NO": 999, "REV_AT_EPOCH": 2663, "BSTAR": 0.00021991766, "MEAN_MOTION_DOT": 1.2e-05, "MEAN_MOTION_DDOT": 0}, "tle": {"line1": "1 64694U 25141A   25361.30507669  .00001200  00000+0  21992-3 0  9993", "line2": "2 64694  98.0442 296.5549 0001466  82.1908 277.9463 14.67557386 26630"}}, "geometry": {"type": "Point", "coordinates": [127.52433825790709, 52.647745053881195]}}, {"type": "Feature", "properties": {"norad_id": 64876, "name": "IONOSFERA-M 3", "group": "resource", "lat": -5.553800341284044, "lon": 142.20747035371969, "alt_km": 825.1841136500971, "timestamp": "2025-12-27T14:26:30.174599+00:00", "meta": {"OBJECT_NAME": "IONOSFERA-M 3", "OBJECT_ID": "2025-155A", "EPOCH": "2025-12-27T06:48:51.687648", "MEAN_MOTION": 14.21444673, "ECCENTRICITY": 0.0001756, "INCLINATION": 98.5803, "RA_OF_ASC_NODE": 322.7398, "ARG_OF_PERICENTER": 36.2038, "MEAN_ANOMALY": 323.9258, "EPHEMERIS_TYPE": 0, "CLASSIFICATION_TYPE": "U", "NORAD_CAT_ID": 64876, "ELEMENT_SET_NO": 999, "REV_AT_EPOCH": 2198, "BSTAR": 7.3363458e-05, "MEAN_MOTION_DOT": 1.18e-06, "MEAN_MOTION_DDOT": 0}, "tle": {"line1": "1 64876U 25155A   25361.28393157  .00000118  00000+0  73363-4 0  9999", "line2": "2 64876  98.5803 322.7398 0001756  36.2038 323.9258 14.21444673 21989"}}, "geometry": {"type": "Point", "coordinates": [142.20747035371969, -5.553800341284044]}}, {"type": "Feature", "properties": {"norad_id": 64877, "name": "IONOSFERA-M 4", "group": "resource", "lat": 6.012545748219126, "lon": -37.943176971732136, "alt_km": 821.9347899522936, "timestamp": "2025-12-27T14:26:30.174609+00:00", "meta": {"OBJECT_NAME": "IONOSFERA-M 4", "OBJECT_ID": "2025-155B", "EPOCH": "2025-12-27T07:39:20.447424", "MEAN_MOTION": 14.21445851, "ECCENTRICITY": 0.00012146, "INCLINATION": 98.5803, "RA_OF_ASC_NODE": 322.6932, "ARG_OF_PERICENTER": 50.3817, "MEAN_ANOMALY": 309.7468, "EPHEMERIS_TYPE": 0, "CLASSIFICATION_TYPE": "U", "NORAD_CAT_ID": 64877, "ELEMENT_SET_NO": 999, "REV_AT_EPOCH": 2198, "BSTAR": 6.9968412e-05, "MEAN_MOTION_DOT": 1.1e-06, "MEAN_MOTION_DDOT": 0}, "tle": {"line1": "1 64877U 25155B   25361.31898666  .00000110  00000+0  69968-4 0  9997", "line2": "2 64877  98.5803 322.6932 0001214  50.3817 309.7468 14.21445851 21988"}}, "geometry": {"type": "Point", "coordinates": [-37.943176971732136, 6.012545748219126]}}, {"type": "Feature", "properties": {"norad_id": 64899, "name": "MICROCARB", "group": "resource", "lat": -15.176547417149441, "lon": 78.89432948510165, "alt_km": 664.5039684108533, "timestamp": "2025-12-27T14:26:30.174620+00:00", "meta": {"OBJECT_NAME": "MICROCARB", "OBJECT_ID": "2025-156A", "EPOCH": "2025-12-27T04:43:23.827584", "MEAN_MOTION": 14.72080893, "ECCENTRICITY": 0.00176712, "INCLINATION": 98.0009, "RA_OF_ASC_NODE": 76.3095, "ARG_OF_PERICENTER": 101.5211, "MEAN_ANOMALY": 258.7982, "EPHEMERIS_TYPE": 0, "CLASSIFICATION_TYPE": "U", "NORAD_CAT_ID": 64899, "ELEMENT_SET_NO": 999, "REV_AT_EPOCH": 2266, "BSTAR": 0.00014485368, "MEAN_MOTION_DOT": 8.63e-06, "MEAN_MOTION_DDOT": 0}, "tle": {"line1": "1 64899U 25156A   25361.19680356  .00000863  00000+0  14485-3 0  9991", "line2": "2 64899  98.0009  76.3095 0017671 101.5211 258.7982 14.72080893 22666"}}, "geometry": {"type": "Point", "coordinates": [78.89432948510165, -15.176547417149441]}}, {"type": "Feature", "properties": {"norad_id": 64900, "name": "CO3D 3", "group": "resource", "lat": 75.28294873903884, "lon": 47.94734674154946, "alt_km": 497.2125080384367, "timestamp": "2025-12-27T14:26:30.174630+00:00", "meta": {"OBJECT_NAME": "CO3D 3", "OBJECT_ID": "2025-156B", "EPOCH": "2025-12-27T06:12:15.860160", "MEAN_MOTION": 15.20193308, "ECCENTRICITY": 0.00013493, "INCLINATION": 97.4338, "RA_OF_ASC_NODE": 77.417, "ARG_OF_PERICENTER": 63.6144, "MEAN_ANOMALY": 296.523, "EPHEMERIS_TYPE": 0, "CLASSIFICATION_TYPE": "U", "NORAD_CAT_ID": 64900, "ELEMENT_SET_NO": 999, "REV_AT_EPOCH": 2341, "BSTAR": 0.00027291683, "MEAN_MOTION_DOT": 5.844e-05, "MEAN_MOTION_DDOT": 0}, "tle": {"line1": "1 64900U 25156B   25361.25851690  .00005844  00000+0  27292-3 0  9996", "line2": "2 64900  97.4338  77.4170 0001349  63.6144 296.5230 15.20193308 23411"}}, "geometry": {"type": "Point", "coordinates": [47.94734674154946, 75.28294873903884]}}, {"type": "Feature", "properties": {"norad_id": 64901, "name": "CO3D 4", "group": "resource", "lat": 74.52579653087926, "lon": 49.61542497128763, "alt_km": 497.76218216981124, "timestamp": "2025-12-27T14:26:30.174640+00:00", "meta": {"OBJECT_NAME": "CO3D 4", "OBJECT_ID": "2025-156C", "EPOCH": "2025-12-27T06:12:29.550240", "MEAN_MOTION": 15.20209247, "ECCENTRICITY": 0.00014575, "INCLINATION": 97.4337, "RA_OF_ASC_NODE": 77.4176, "ARG_OF_PERICENTER": 147.4625, "MEAN_ANOMALY": 212.67, "EPHEMERIS_TYPE": 0, "CLASSIFICATION_TYPE": "U", "NORAD_CAT_ID": 64901, "ELEMENT_SET_NO": 999, "REV_AT_EPOCH": 2341, "BSTAR": 0.00031167318, "MEAN_MOTION_DOT": 6.687e-05, "MEAN_MOTION_DDOT": 0}, "tle": {"line1": "1 64901U 25156C   25361.25867535  .00006687  00000+0  31167-3 0  9994", "line2": "2 64901  97.4337  77.4176 0001457 147.4625 212.6700 15.20209247 23413"}}, "geometry": {"type": "Point", "coordinates": [49.61542497128763, 74.52579653087926]}}]}